IRIDIUM 150             
1 43257U 18030J   24285.53401536  .00001879  00000+0  66368-3 0  9997
2 43257  86.4043 186.9411 0002452  84.9646 275.1829 14.34223792342200
IRIDIUM 143             
1 43258U 18030K   24285.23590848  .00004667  00000+0  16576-2 0  9993
2 43258  86.4046 187.1337 0002631  83.9842 276.1654 14.34240752342099
IRIDIUM 161             
1 43478U 18047C   24285.45244059  .00005790  00000+0  17128-2 0  9991
2 43478  86.4529 344.9669 0002005  94.9349 265.2081 14.43311691336614
IRIDIUM 152             
1 43479U 18047D   24285.55747673  .00002132  00000+0  75388-3 0  9993
2 43479  86.4005 344.7821 0002149  92.8931 267.2510 14.34222850334531
IRIDIUM 147             
1 43480U 18047E   24285.56381760  .00002049  00000+0  72441-3 0  9991
2 43480  86.4007 344.7738 0001986  92.4794 267.6629 14.34223937334535
IRIDIUM 110             
1 43481U 18047F   24285.57015504  .00000330  00000+0  11085-3 0  9991
2 43481  86.4009 344.8473 0001682 101.1980 258.9404 14.34221303334521
IRIDIUM 162             
1 43482U 18047G   24285.44609786  .00006677  00000+0  19765-2 0  9991
2 43482  86.4527 344.8680 0001787  91.8801 268.2605 14.43301891336609
IRIDIUM 160             
1 43569U 18061A   24285.44620113  .00005028  00000+0  17858-2 0  9990
2 43569  86.3945 313.2760 0001967  87.9636 272.1785 14.34253075325408
